QIANFAN-17              
1 60395U 24140S   25263.92949336  .00000094  00000+0  12610-3 0  9992
2 60395  88.9794 308.0080 0017150  86.9585 273.3529 13.50970108 56954
QIANFAN-18              
1 60396U 24140T   25263.90896236  .00000086  00000+0  11469-3 0  9993
2 60396  88.9785 307.5500 0016265  71.9293 288.3629 13.50971874 56343
QIANFAN-19              
1 61552U 24185A   25263.94341905  .00000531  00000+0  27153-3 0  9991
2 61552  88.9753  87.4347 0006171 193.8958 166.2060 14.14157749 57963
QIANFAN-20              
1 61553U 24185B   25263.93991773  .00000583  00000+0  33065-3 0  9991
2 61553  88.9752  87.6756 0004181 238.3131 121.7646 14.08708602 57831
QIANFAN-21              
1 61554U 24185C   25263.95726853  .00000787  00000+0  34717-3 0  9990
2 61554  88.9668  86.6813 0008523 273.7031  86.3185 14.22422502 58201
QIANFAN-22              
1 61555U 24185D   25263.99942231  .00000231  00000+0  18827-3 0  9993
2 61555  88.9737  88.3174 0004829 239.3080 120.7615 13.86256251 57479
QIANFAN-23              
1 61556U 24185E   25263.96470425  .00000710  00000+0  35237-3 0  9998
2 61556  88.9746  87.2804 0006589 209.9306 150.1506 14.16139321 58038
QIANFAN-24              
1 61557U 24185F   25263.95968209  .00000822  00000+0  35438-3 0  9997
2 61557  88.9728  86.8213 0008796 196.3957 163.6952 14.23626641 58242
